[{"OBJECT_NAME":"KINEIS-1B","OBJECT_ID":"2024-114A","EPOCH":"2026-03-09T23:21:36.874080","MEAN_MOTION":14.80419144,"ECCENTRICITY":0.00037258,"INCLINATION":97.9923,"RA_OF_ASC_NODE":93.6056,"ARG_OF_PERICENTER":72.6179,"MEAN_ANOMALY":287.544,"EPHEMERIS_TYPE":0,"CLASSIFICATION_TYPE":"U","NORAD_CAT_ID":60079,"ELEMENT_SET_NO":999,"REV_AT_EPOCH":9272,"BSTAR":0.00022203234,"MEAN_MOTION_DOT":1.644e-5,"MEAN_MOTION_DDOT":0},{"OBJECT_NAME":"FENGYUN 1C DEB","OBJECT_ID":"1999-025BTX","EPOCH":"2026-03-08T17:49:10.867296","MEAN_MOTION":14.53615214,"ECCENTRICITY":0.01476461,"INCLINATION":99.0438,"RA_OF_ASC_NODE":251.3645,"ARG_OF_PERICENTER":281.2353,"MEAN_ANOMALY":77.2278,"EPHEMERIS_TYPE":0,"CLASSIFICATION_TYPE":"U","NORAD_CAT_ID":31435,"ELEMENT_SET_NO":999,"REV_AT_EPOCH":99622,"BSTAR":0.00026084624,"MEAN_MOTION_DOT":1.197e-5,"MEAN_MOTION_DDOT":0}]
